CCSDS_OMM_VERS = 2.0
CREATION_DATE  = 
ORIGINATOR     = 

OBJECT_NAME    = STARLINK-36434
OBJECT_ID      = 2026-002T
CENTER_NAME    = EARTH
REF_FRAME      = TEME
TIME_SYSTEM    = UTC
MEAN_ELEMENT_THEORY = SGP/SGP4

EPOCH          = 2026-01-26T12:00:00.998784
MEAN_MOTION    = 15.62527518
ECCENTRICITY   = .0001337
INCLINATION    = 42.9993
RA_OF_ASC_NODE = 205.8812
ARG_OF_PERICENTER = 257.1648
MEAN_ANOMALY   = 314.6212

EPHEMERIS_TYPE = 0
CLASSIFICATION_TYPE = U
NORAD_CAT_ID   = 67322
ELEMENT_SET_NO = 999
REV_AT_EPOCH   = 463
BSTAR          = -.25529E-1
MEAN_MOTION_DOT = -.2048009E-1
MEAN_MOTION_DDOT = 0

CCSDS_OMM_VERS = 2.0
CREATION_DATE  = 
ORIGINATOR     = 

OBJECT_NAME    = STARLINK-36497
OBJECT_ID      = 2026-002U
CENTER_NAME    = EARTH
REF_FRAME      = TEME
TIME_SYSTEM    = UTC
MEAN_ELEMENT_THEORY = SGP/SGP4

EPOCH          = 2026-01-26T12:00:00.998784
MEAN_MOTION    = 15.62529714
ECCENTRICITY   = .0001422
INCLINATION    = 42.9992
RA_OF_ASC_NODE = 205.8708
ARG_OF_PERICENTER = 260.4494
MEAN_ANOMALY   = 315.1698

EPHEMERIS_TYPE = 0
CLASSIFICATION_TYPE = U
NORAD_CAT_ID   = 67323
ELEMENT_SET_NO = 999
REV_AT_EPOCH   = 469
BSTAR          = -.25577E-1
MEAN_MOTION_DOT = -.2051643E-1
MEAN_MOTION_DDOT = 0

CCSDS_OMM_VERS = 2.0
CREATION_DATE  = 
ORIGINATOR     = 

OBJECT_NAME    = STARLINK-36471
OBJECT_ID      = 2026-002V
CENTER_NAME    = EARTH
REF_FRAME      = TEME
TIME_SYSTEM    = UTC
MEAN_ELEMENT_THEORY = SGP/SGP4

EPOCH          = 2026-01-26T12:00:00.998784
MEAN_MOTION    = 15.62531646
ECCENTRICITY   = .0001329
INCLINATION    = 42.9993
RA_OF_ASC_NODE = 205.8611
ARG_OF_PERICENTER = 262.0975
MEAN_ANOMALY   = 317.3545

EPHEMERIS_TYPE = 0
CLASSIFICATION_TYPE = U
NORAD_CAT_ID   = 67324
ELEMENT_SET_NO = 999
REV_AT_EPOCH   = 463
BSTAR          = -.25599E-1
MEAN_MOTION_DOT = -.2053213E-1
MEAN_MOTION_DDOT = 0

CCSDS_OMM_VERS = 2.0
CREATION_DATE  = 
ORIGINATOR     = 

OBJECT_NAME    = STARLINK-36473
OBJECT_ID      = 2026-002W
CENTER_NAME    = EARTH
REF_FRAME      = TEME
TIME_SYSTEM    = UTC
MEAN_ELEMENT_THEORY = SGP/SGP4

EPOCH          = 2026-01-26T12:00:00.998784
MEAN_MOTION    = 15.62527794
ECCENTRICITY   = .0001369
INCLINATION    = 42.9993
RA_OF_ASC_NODE = 205.8657
ARG_OF_PERICENTER = 257.6490
MEAN_ANOMALY   = 319.8892

EPHEMERIS_TYPE = 0
CLASSIFICATION_TYPE = U
NORAD_CAT_ID   = 67325
ELEMENT_SET_NO = 999
REV_AT_EPOCH   = 479
BSTAR          = -.25557E-1
MEAN_MOTION_DOT = -.2050041E-1
MEAN_MOTION_DDOT = 0

CCSDS_OMM_VERS = 2.0
CREATION_DATE  = 
ORIGINATOR     = 

OBJECT_NAME    = STARLINK-36430
OBJECT_ID      = 2026-002X
CENTER_NAME    = EARTH
REF_FRAME      = TEME
TIME_SYSTEM    = UTC
MEAN_ELEMENT_THEORY = SGP/SGP4

EPOCH          = 2026-01-26T12:00:00.998784
MEAN_MOTION    = 15.62527755
ECCENTRICITY   = .0001364
INCLINATION    = 42.9994
RA_OF_ASC_NODE = 205.8509
ARG_OF_PERICENTER = 261.5577
MEAN_ANOMALY   = 321.7302

EPHEMERIS_TYPE = 0
CLASSIFICATION_TYPE = U
NORAD_CAT_ID   = 67326
ELEMENT_SET_NO = 999
REV_AT_EPOCH   = 479
BSTAR          = -.25537E-1
MEAN_MOTION_DOT = -.204861E-1
MEAN_MOTION_DDOT = 0

CCSDS_OMM_VERS = 2.0
CREATION_DATE  = 
ORIGINATOR     = 

OBJECT_NAME    = STARLINK-36501
OBJECT_ID      = 2026-002Y
CENTER_NAME    = EARTH
REF_FRAME      = TEME
TIME_SYSTEM    = UTC
MEAN_ELEMENT_THEORY = SGP/SGP4

EPOCH          = 2026-01-23T20:23:48.628896
MEAN_MOTION    = 15.74765594
ECCENTRICITY   = .00042463
INCLINATION    = 42.9991
RA_OF_ASC_NODE = 221.7697
ARG_OF_PERICENTER = 138.9671
MEAN_ANOMALY   = 221.1518

EPHEMERIS_TYPE = 0
CLASSIFICATION_TYPE = U
NORAD_CAT_ID   = 67327
ELEMENT_SET_NO = 999
REV_AT_EPOCH   = 418
BSTAR          = .1209596E-2
MEAN_MOTION_DOT = .187321E-2
MEAN_MOTION_DDOT = 0

CCSDS_OMM_VERS = 2.0
CREATION_DATE  = 
ORIGINATOR     = 

OBJECT_NAME    = STARLINK-36489
OBJECT_ID      = 2026-002Z
CENTER_NAME    = EARTH
REF_FRAME      = TEME
TIME_SYSTEM    = UTC
MEAN_ELEMENT_THEORY = SGP/SGP4

EPOCH          = 2026-01-26T12:00:00.998784
MEAN_MOTION    = 15.62525534
ECCENTRICITY   = .0001439
INCLINATION    = 42.9992
RA_OF_ASC_NODE = 205.8469
ARG_OF_PERICENTER = 256.1571
MEAN_ANOMALY   = 329.0484

EPHEMERIS_TYPE = 0
CLASSIFICATION_TYPE = U
NORAD_CAT_ID   = 67328
ELEMENT_SET_NO = 999
REV_AT_EPOCH   = 479
BSTAR          = -.25486E-1
MEAN_MOTION_DOT = -.204493E-1
MEAN_MOTION_DDOT = 0

CCSDS_OMM_VERS = 2.0
CREATION_DATE  = 
ORIGINATOR     = 

OBJECT_NAME    = STARLINK-36496
OBJECT_ID      = 2026-002AA
CENTER_NAME    = EARTH
REF_FRAME      = TEME
TIME_SYSTEM    = UTC
MEAN_ELEMENT_THEORY = SGP/SGP4

EPOCH          = 2026-01-26T12:00:00.998784
MEAN_MOTION    = 15.62518184
ECCENTRICITY   = .0001553
INCLINATION    = 42.9991
RA_OF_ASC_NODE = 205.8359
ARG_OF_PERICENTER = 259.4073
MEAN_ANOMALY   = 329.6315

EPHEMERIS_TYPE = 0
CLASSIFICATION_TYPE = U
NORAD_CAT_ID   = 67329
ELEMENT_SET_NO = 999
REV_AT_EPOCH   = 461
BSTAR          = -.25313E-1
MEAN_MOTION_DOT = -.2032416E-1
MEAN_MOTION_DDOT = 0

CCSDS_OMM_VERS = 2.0
CREATION_DATE  = 
ORIGINATOR     = 

OBJECT_NAME    = STARLINK-36483
OBJECT_ID      = 2026-002AB
CENTER_NAME    = EARTH
REF_FRAME      = TEME
TIME_SYSTEM    = UTC
MEAN_ELEMENT_THEORY = SGP/SGP4

EPOCH          = 2026-01-26T12:00:00.998784
MEAN_MOTION    = 15.62524938
ECCENTRICITY   = .0001502
INCLINATION    = 42.9992
RA_OF_ASC_NODE = 205.8259
ARG_OF_PERICENTER = 258.4792
MEAN_ANOMALY   = 334.3948

EPHEMERIS_TYPE = 0
CLASSIFICATION_TYPE = U
NORAD_CAT_ID   = 67330
ELEMENT_SET_NO = 999
REV_AT_EPOCH   = 479
BSTAR          = -.25472E-1
MEAN_MOTION_DOT = -.2043983E-1
MEAN_MOTION_DDOT = 0

CCSDS_OMM_VERS = 2.0
CREATION_DATE  = 
ORIGINATOR     = 

OBJECT_NAME    = STARLINK-36494
OBJECT_ID      = 2026-002AC
CENTER_NAME    = EARTH
REF_FRAME      = TEME
TIME_SYSTEM    = UTC
MEAN_ELEMENT_THEORY = SGP/SGP4

EPOCH          = 2026-01-26T12:00:00.998784
MEAN_MOTION    = 15.62528102
ECCENTRICITY   = .0001428
INCLINATION    = 42.9990
RA_OF_ASC_NODE = 205.8408
ARG_OF_PERICENTER = 258.0206
MEAN_ANOMALY   = 329.1014

EPHEMERIS_TYPE = 0
CLASSIFICATION_TYPE = U
NORAD_CAT_ID   = 67331
ELEMENT_SET_NO = 999
REV_AT_EPOCH   = 479
BSTAR          = -.25545E-1
MEAN_MOTION_DOT = -.2049257E-1
MEAN_MOTION_DDOT = 0

CCSDS_OMM_VERS = 2.0
CREATION_DATE  = 
ORIGINATOR     = 

OBJECT_NAME    = STARLINK-36492
OBJECT_ID      = 2026-002AD
CENTER_NAME    = EARTH
REF_FRAME      = TEME
TIME_SYSTEM    = UTC
MEAN_ELEMENT_THEORY = SGP/SGP4

EPOCH          = 2026-01-26T12:00:00.998784
MEAN_MOTION    = 15.62525812
ECCENTRICITY   = .0001393
INCLINATION    = 42.9994
RA_OF_ASC_NODE = 205.8316
ARG_OF_PERICENTER = 256.1815
MEAN_ANOMALY   = 334.7746

EPHEMERIS_TYPE = 0
CLASSIFICATION_TYPE = U
NORAD_CAT_ID   = 67332
ELEMENT_SET_NO = 999
REV_AT_EPOCH   = 479
BSTAR          = -.2547E-1
MEAN_MOTION_DOT = -.2043814E-1
MEAN_MOTION_DDOT = 0

CCSDS_OMM_VERS = 2.0
CREATION_DATE  = 
ORIGINATOR     = 

OBJECT_NAME    = STARLINK-36427
OBJECT_ID      = 2026-002AE
CENTER_NAME    = EARTH
REF_FRAME      = TEME
TIME_SYSTEM    = UTC
MEAN_ELEMENT_THEORY = SGP/SGP4

EPOCH          = 2026-01-26T12:00:00.998784
MEAN_MOTION    = 15.50546712
ECCENTRICITY   = .0001659
INCLINATION    = 42.9990
RA_OF_ASC_NODE = 205.6376
ARG_OF_PERICENTER = 269.9621
MEAN_ANOMALY   = 32.9802

EPHEMERIS_TYPE = 0
CLASSIFICATION_TYPE = U
NORAD_CAT_ID   = 67333
ELEMENT_SET_NO = 999
REV_AT_EPOCH   = 469
BSTAR          = .94487E-3
MEAN_MOTION_DOT = .55419E-3
MEAN_MOTION_DDOT = 0

