STARLINK-36434          
1 67322U 26002T   26026.50001156 -.02048009  00000+0 -25529-1 0  9992
2 67322  42.9993 205.8812 0001337 257.1648 314.6212 15.62527518  4635
STARLINK-36497          
1 67323U 26002U   26026.50001156 -.02051643  00000+0 -25577-1 0  9994
2 67323  42.9992 205.8708 0001422 260.4494 315.1698 15.62529714  4690
STARLINK-36471          
1 67324U 26002V   26026.50001156 -.02053213  00000+0 -25599-1 0  9994
2 67324  42.9993 205.8611 0001329 262.0975 317.3545 15.62531646  4639
STARLINK-36473          
1 67325U 26002W   26026.50001156 -.02050041  00000+0 -25557-1 0  9995
2 67325  42.9993 205.8657 0001369 257.6490 319.8892 15.62527794  4794
STARLINK-36430          
1 67326U 26002X   26026.50001156 -.02048610  00000+0 -25537-1 0  9993
2 67326  42.9994 205.8509 0001364 261.5577 321.7302 15.62527755  4792
STARLINK-36501          
1 67327U 26002Y   26023.84986839  .00187321  00000+0  12096-2 0  9994
2 67327  42.9991 221.7697 0004246 138.9671 221.1518 15.74765594  4182
STARLINK-36489          
1 67328U 26002Z   26026.50001156 -.02044930  00000+0 -25486-1 0  9999
2 67328  42.9992 205.8469 0001439 256.1571 329.0484 15.62525534  4799
STARLINK-36496          
1 67329U 26002AA  26026.50001156 -.02032416  00000+0 -25313-1 0  9995
2 67329  42.9991 205.8359 0001553 259.4073 329.6315 15.62518184  4610
STARLINK-36483          
1 67330U 26002AB  26026.50001156 -.02043983  00000+0 -25472-1 0  9994
2 67330  42.9992 205.8259 0001502 258.4792 334.3948 15.62524938  4791
STARLINK-36494          
1 67331U 26002AC  26026.50001156 -.02049257  00000+0 -25545-1 0  9996
2 67331  42.9990 205.8408 0001428 258.0206 329.1014 15.62528102  4792
STARLINK-36492          
1 67332U 26002AD  26026.50001156 -.02043814  00000+0 -25470-1 0  9997
2 67332  42.9994 205.8316 0001393 256.1815 334.7746 15.62525812  4790
STARLINK-36427          
1 67333U 26002AE  26026.50001156  .00055419  00000+0  94487-3 0  9994
2 67333  42.9990 205.6376 0001659 269.9621  32.9802 15.50546712  4691
